STARLINK-30464          
1 57908U 23146T   26162.27129345 -.00000902  00000+0 -23245-4 0  9997
2 57908  43.0023 149.4974 0001195 269.6654  90.4060 15.27573700150265
STARLINK-30488          
1 57931U 23147U   26162.30196141  .00000155  00000+0  15170-4 0  9992
2 57931  43.0035 160.0320 0001275 283.0799  76.9910 15.27573100150905
STARLINK-30713          
1 57952U 23148T   26162.69856799 -.00000745  00000+0 -10927-4 0  9992
2 57952  53.1614 307.0527 0001217 112.5065 247.6067 15.34393112152827
STARLINK-30511          
1 57978U 23151Q   26162.33003080  .00000447  00000+0  25760-4 0  9990
2 57978  43.0013 181.9243 0001571 271.6629  88.4043 15.27585739149917
STARLINK-30535          
1 58001U 23153L   26161.55888970  .00001212  00000+0  53556-4 0  9997
2 58001  43.0095 262.2280 0000978 261.6324  98.4417 15.27581832149107
MACSAT (FINCH 1)        
1 58024U 23155J   26162.75546644  .00004033  00000+0  18761-3 0  9998
2 58024  97.5781 244.7160 0003965  91.1070 269.0619 15.20529337147500
STARLINK-30548          
1 58046U 23156U   26162.07866777  .00000796  00000+0  34688-4 0  9999
2 58046  53.1604  93.5161 0001070  87.7706 272.3419 15.34395519149290
STARLINK-30567          
1 58067U 23158S   26162.43580394  .00000324  00000+0  21307-4 0  9993
2 58067  42.9993 217.9124 0001454 271.1554  88.9131 15.27579100147907
STARLINK-30591          
1 58088U 23160P   26161.04341245  .00000100  00000+0  13156-4 0  9990
2 58088  43.0010 276.0188 0001360 272.7494  87.3201 15.27580826147070
STARLINK-30421          
1 58107U 23161L   26162.96419687  .00000205  00000+0  17198-4 0  9997
2 58107  53.1619  73.3877 0001391 101.0574 259.0585 15.34391782149051
STARLINK-30767          
1 58126U 23162J   26161.72695973  .00000547  00000+0  29393-4 0  9995
2 58126  43.0028 323.8506 0001663 262.9069  97.1594 15.27579543146574
STARLINK-30802          
1 58150U 23166A   26162.23286743  .00000189  00000+0  17829-4 0  9997
2 58150  53.1599 144.9299 0000869  86.3775 273.7326 15.31705977147502
STARLINK-30771          
1 58169U 23166V   26162.23985421  .00001709  00000+0  69834-4 0  9998
2 58169  53.1599 144.9860 0001305 100.1619 259.9529 15.30186955147503
STARLINK-30820          
1 58190U 23167R   26161.76347440 -.00000049  00000+0  77474-5 0  9990
2 58190  43.0062 337.4154 0001677 265.6929  94.3732 15.27580584145224
STARLINK-30805          
1 58214U 23170J   26161.93662607  .00000234  00000+0  18020-4 0  9991
2 58214  43.0049  27.3377 0001265 266.3032  93.7675 15.27573631144564
STARLINK-30853          
1 58236U 23171G   26162.14335746  .00000574  00000+0  30387-4 0  9998
2 58236  43.0061 117.7494 0001589 267.1877  92.8793 15.27579354144021
