[ {"OBJECT_NAME": "STARLINK-30464", "OBJECT_ID": "2023-146T", "EPOCH": "2026-06-11T06:30:39.754080", "MEAN_MOTION": 15.275737, "ECCENTRICITY": 0.0001195, "INCLINATION": 43.0023, "RA_OF_ASC_NODE": 149.4974, "ARG_OF_PERICENTER": 269.6654, "MEAN_ANOMALY": 90.406, "EPHEMERIS_TYPE": 0, "CLASSIFICATION_TYPE": "U", "NORAD_CAT_ID": 57908, "ELEMENT_SET_NO": 999, "REV_AT_EPOCH": 15026, "BSTAR": -2.3245e-05, "MEAN_MOTION_DOT": -9.02e-06, "MEAN_MOTION_DDOT": 0}, {"OBJECT_NAME": "STARLINK-30488", "OBJECT_ID": "2023-147U", "EPOCH": "2026-06-11T07:14:49.465824", "MEAN_MOTION": 15.275731, "ECCENTRICITY": 0.0001275, "INCLINATION": 43.0035, "RA_OF_ASC_NODE": 160.032, "ARG_OF_PERICENTER": 283.0799, "MEAN_ANOMALY": 76.991, "EPHEMERIS_TYPE": 0, "CLASSIFICATION_TYPE": "U", "NORAD_CAT_ID": 57931, "ELEMENT_SET_NO": 999, "REV_AT_EPOCH": 15090, "BSTAR": 1.517e-05, "MEAN_MOTION_DOT": 1.55e-06, "MEAN_MOTION_DDOT": 0}, {"OBJECT_NAME": "STARLINK-30713", "OBJECT_ID": "2023-148T", "EPOCH": "2026-06-11T16:45:56.274336", "MEAN_MOTION": 15.34393112, "ECCENTRICITY": 0.00012172, "INCLINATION": 53.1614, "RA_OF_ASC_NODE": 307.0527, "ARG_OF_PERICENTER": 112.5065, "MEAN_ANOMALY": 247.6067, "EPHEMERIS_TYPE": 0, "CLASSIFICATION_TYPE": "U", "NORAD_CAT_ID": 57952, "ELEMENT_SET_NO": 999, "REV_AT_EPOCH": 15282, "BSTAR": -1.0926816e-05, "MEAN_MOTION_DOT": -7.45e-06, "MEAN_MOTION_DDOT": 0}, {"OBJECT_NAME": "STARLINK-30511", "OBJECT_ID": "2023-151Q", "EPOCH": "2026-06-11T07:55:14.661120", "MEAN_MOTION": 15.27585739, "ECCENTRICITY": 0.0001571, "INCLINATION": 43.0013, "RA_OF_ASC_NODE": 181.9243, "ARG_OF_PERICENTER": 271.6629, "MEAN_ANOMALY": 88.4043, "EPHEMERIS_TYPE": 0, "CLASSIFICATION_TYPE": "U", "NORAD_CAT_ID": 57978, "ELEMENT_SET_NO": 999, "REV_AT_EPOCH": 14991, "BSTAR": 2.576e-05, "MEAN_MOTION_DOT": 4.47e-06, "MEAN_MOTION_DDOT": 0}, {"OBJECT_NAME": "STARLINK-30535", "OBJECT_ID": "2023-153L", "EPOCH": "2026-06-10T13:24:48.070080", "MEAN_MOTION": 15.27581832, "ECCENTRICITY": 9.782e-05, "INCLINATION": 43.0095, "RA_OF_ASC_NODE": 262.228, "ARG_OF_PERICENTER": 261.6324, "MEAN_ANOMALY": 98.4417, "EPHEMERIS_TYPE": 0, "CLASSIFICATION_TYPE": "U", "NORAD_CAT_ID": 58001, "ELEMENT_SET_NO": 999, "REV_AT_EPOCH": 14910, "BSTAR": 5.3556333e-05, "MEAN_MOTION_DOT": 1.212e-05, "MEAN_MOTION_DDOT": 0}, {"OBJECT_NAME": "MACSAT (FINCH 1)", "OBJECT_ID": "2023-155J", "EPOCH": "2026-06-11T18:07:52.300416", "MEAN_MOTION": 15.20529337, "ECCENTRICITY": 0.0003965, "INCLINATION": 97.5781, "RA_OF_ASC_NODE": 244.716, "ARG_OF_PERICENTER": 91.107, "MEAN_ANOMALY": 269.0619, "EPHEMERIS_TYPE": 0, "CLASSIFICATION_TYPE": "U", "NORAD_CAT_ID": 58024, "ELEMENT_SET_NO": 999, "REV_AT_EPOCH": 14750, "BSTAR": 0.00018761498, "MEAN_MOTION_DOT": 4.033e-05, "MEAN_MOTION_DDOT": 0}, {"OBJECT_NAME": "STARLINK-30548", "OBJECT_ID": "2023-156U", "EPOCH": "2026-06-11T01:53:16.895328", "MEAN_MOTION": 15.34395519, "ECCENTRICITY": 0.000107, "INCLINATION": 53.1604, "RA_OF_ASC_NODE": 93.5161, "ARG_OF_PERICENTER": 87.7706, "MEAN_ANOMALY": 272.3419, "EPHEMERIS_TYPE": 0, "CLASSIFICATION_TYPE": "U", "NORAD_CAT_ID": 58046, "ELEMENT_SET_NO": 999, "REV_AT_EPOCH": 14929, "BSTAR": 3.468845e-05, "MEAN_MOTION_DOT": 7.96e-06, "MEAN_MOTION_DDOT": 0}, {"OBJECT_NAME": "STARLINK-30567", "OBJECT_ID": "2023-158S", "EPOCH": "2026-06-11T10:27:33.460416", "MEAN_MOTION": 15.275791, "ECCENTRICITY": 0.0001454, "INCLINATION": 42.9993, "RA_OF_ASC_NODE": 217.9124, "ARG_OF_PERICENTER": 271.1554, "MEAN_ANOMALY": 88.9131, "EPHEMERIS_TYPE": 0, "CLASSIFICATION_TYPE": "U", "NORAD_CAT_ID": 58067, "ELEMENT_SET_NO": 999, "REV_AT_EPOCH": 14790, "BSTAR": 2.1307e-05, "MEAN_MOTION_DOT": 3.24e-06, "MEAN_MOTION_DDOT": 0}, {"OBJECT_NAME": "STARLINK-30591", "OBJECT_ID": "2023-160P", "EPOCH": "2026-06-10T01:02:30.835680", "MEAN_MOTION": 15.27580826, "ECCENTRICITY": 0.00013608, "INCLINATION": 43.001, "RA_OF_ASC_NODE": 276.0188, "ARG_OF_PERICENTER": 272.7494, "MEAN_ANOMALY": 87.3201, "EPHEMERIS_TYPE": 0, "CLASSIFICATION_TYPE": "U", "NORAD_CAT_ID": 58088, "ELEMENT_SET_NO": 999, "REV_AT_EPOCH": 14707, "BSTAR": 1.315552e-05, "MEAN_MOTION_DOT": 1e-06, "MEAN_MOTION_DDOT": 0}, {"OBJECT_NAME": "STARLINK-30421", "OBJECT_ID": "2023-161L", "EPOCH": "2026-06-11T23:08:26.609568", "MEAN_MOTION": 15.34391782, "ECCENTRICITY": 0.00013916, "INCLINATION": 53.1619, "RA_OF_ASC_NODE": 73.3877, "ARG_OF_PERICENTER": 101.0574, "MEAN_ANOMALY": 259.0585, "EPHEMERIS_TYPE": 0, "CLASSIFICATION_TYPE": "U", "NORAD_CAT_ID": 58107, "ELEMENT_SET_NO": 999, "REV_AT_EPOCH": 14905, "BSTAR": 1.7198222e-05, "MEAN_MOTION_DOT": 2.05e-06, "MEAN_MOTION_DDOT": 0}, {"OBJECT_NAME": "STARLINK-30767", "OBJECT_ID": "2023-162J", "EPOCH": "2026-06-10T17:26:49.320672", "MEAN_MOTION": 15.27579543, "ECCENTRICITY": 0.00016635, "INCLINATION": 43.0028, "RA_OF_ASC_NODE": 323.8506, "ARG_OF_PERICENTER": 262.9069, "MEAN_ANOMALY": 97.1594, "EPHEMERIS_TYPE": 0, "CLASSIFICATION_TYPE": "U", "NORAD_CAT_ID": 58126, "ELEMENT_SET_NO": 999, "REV_AT_EPOCH": 14657, "BSTAR": 2.9392624e-05, "MEAN_MOTION_DOT": 5.47e-06, "MEAN_MOTION_DDOT": 0}, {"OBJECT_NAME": "STARLINK-30802", "OBJECT_ID": "2023-166A", "EPOCH": "2026-06-11T05:35:19.745952", "MEAN_MOTION": 15.31705977, "ECCENTRICITY": 8.69e-05, "INCLINATION": 53.1599, "RA_OF_ASC_NODE": 144.9299, "ARG_OF_PERICENTER": 86.3775, "MEAN_ANOMALY": 273.7326, "EPHEMERIS_TYPE": 0, "CLASSIFICATION_TYPE": "U", "NORAD_CAT_ID": 58150, "ELEMENT_SET_NO": 999, "REV_AT_EPOCH": 14750, "BSTAR": 1.7829e-05, "MEAN_MOTION_DOT": 1.89e-06, "MEAN_MOTION_DDOT": 0}, {"OBJECT_NAME": "STARLINK-30771", "OBJECT_ID": "2023-166V", "EPOCH": "2026-06-11T05:45:23.403744", "MEAN_MOTION": 15.30186955, "ECCENTRICITY": 0.0001305, "INCLINATION": 53.1599, "RA_OF_ASC_NODE": 144.986, "ARG_OF_PERICENTER": 100.1619, "MEAN_ANOMALY": 259.9529, "EPHEMERIS_TYPE": 0, "CLASSIFICATION_TYPE": "U", "NORAD_CAT_ID": 58169, "ELEMENT_SET_NO": 999, "REV_AT_EPOCH": 14750, "BSTAR": 6.9834e-05, "MEAN_MOTION_DOT": 1.709e-05, "MEAN_MOTION_DDOT": 0}, {"OBJECT_NAME": "STARLINK-30820", "OBJECT_ID": "2023-167R", "EPOCH": "2026-06-10T18:19:24.188160", "MEAN_MOTION": 15.27580584, "ECCENTRICITY": 0.0001677, "INCLINATION": 43.0062, "RA_OF_ASC_NODE": 337.4154, "ARG_OF_PERICENTER": 265.6929, "MEAN_ANOMALY": 94.3732, "EPHEMERIS_TYPE": 0, "CLASSIFICATION_TYPE": "U", "NORAD_CAT_ID": 58190, "ELEMENT_SET_NO": 999, "REV_AT_EPOCH": 14522, "BSTAR": 7.747414e-06, "MEAN_MOTION_DOT": -4.9e-07, "MEAN_MOTION_DDOT": 0}, {"OBJECT_NAME": "STARLINK-30805", "OBJECT_ID": "2023-170J", "EPOCH": "2026-06-10T22:28:44.492448", "MEAN_MOTION": 15.27573631, "ECCENTRICITY": 0.0001265, "INCLINATION": 43.0049, "RA_OF_ASC_NODE": 27.3377, "ARG_OF_PERICENTER": 266.3032, "MEAN_ANOMALY": 93.7675, "EPHEMERIS_TYPE": 0, "CLASSIFICATION_TYPE": "U", "NORAD_CAT_ID": 58214, "ELEMENT_SET_NO": 999, "REV_AT_EPOCH": 14456, "BSTAR": 1.8020421e-05, "MEAN_MOTION_DOT": 2.34e-06, "MEAN_MOTION_DDOT": 0}, {"OBJECT_NAME": "STARLINK-30853", "OBJECT_ID": "2023-171G", "EPOCH": "2026-06-11T03:26:26.084544", "MEAN_MOTION": 15.27579354, "ECCENTRICITY": 0.00015895, "INCLINATION": 43.0061, "RA_OF_ASC_NODE": 117.7494, "ARG_OF_PERICENTER": 267.1877, "MEAN_ANOMALY": 92.8793, "EPHEMERIS_TYPE": 0, "CLASSIFICATION_TYPE": "U", "NORAD_CAT_ID": 58236, "ELEMENT_SET_NO": 999, "REV_AT_EPOCH": 14402, "BSTAR": 3.0387457e-05, "MEAN_MOTION_DOT": 5.74e-06, "MEAN_MOTION_DDOT": 0}]